NORAD_CAT_ID,OBJECT_NAME,OBJECT_TYPE,EPOCH,MEAN_MOTION,ECCENTRICITY,INCLINATION,RA_OF_ASC_NODE,ARG_OF_PERICENTER,MEAN_ANOMALY,BSTAR,MEAN_MOTION_DOT,MEAN_MOTION_DDOT,TLE_LINE0,TLE_LINE1,TLE_LINE2,SEMIMAJOR_AXIS,PERIOD,APOGEE,PERIGEE,DECAYED
51996.0,STARLINK-3538,PAYLOAD,2023-05-10 20:27:38,15.0884539,0.000126,53.2171,340.195,95.9448,264.1688,9.9536e-05,1.297e-05,0.0,0 STARLINK-3538,1 51996U 22025AS  23130.85252705  .00001297  00000-0  99536-4 0  9999,2 51996  53.2171 340.1950 0001260  95.9448 264.1688 15.08845390 66360,6917.864,95.437,540.601,538.857,0.0
51996.0,STARLINK-3538,PAYLOAD,2023-05-11 20:18:25,15.08837643,9.85e-05,53.2153,335.7384,71.8383,288.2716,2.2963e-05,7.8e-07,0.0,0 STARLINK-3538,1 51996U 22025AS  23131.84613343  .00000078  00000-0  22963-4 0  9994,2 51996  53.2153 335.7384 0000985  71.8383 288.2716 15.08837643 66513,6917.888,95.438,540.434,539.071,0.0
51996.0,STARLINK-3538,PAYLOAD,2023-05-12 04:15:21,15.0883966,0.0001123,53.2169,334.2482,84.7575,275.3546,4.1389e-05,3.71e-06,0.0,0 STARLINK-3538,1 51996U 22025AS  23132.17733139  .00000371  00000-0  41389-4 0  9996,2 51996  53.2169 334.2482 0001123  84.7575 275.3546 15.08839660 65040,6917.881,95.438,540.523,538.97,0.0
51996.0,STARLINK-3538,PAYLOAD,2023-05-12 20:09:12,15.08845079,0.0001065,53.216,331.2751,79.6203,280.4909,0.00012002,1.623e-05,0.0,0 STARLINK-3538,1 51996U 22025AS  23132.83972999  .00001623  00000-0  12002-3 0  9998,2 51996  53.2160 331.2751 0001065  79.6203 280.4909 15.08845079 65145,6917.865,95.437,540.467,538.993,0.0
51996.0,STARLINK-3538,PAYLOAD,2023-05-13 00:55:21,15.08854066,0.0001069,53.2169,330.3812,76.3619,283.7492,0.00022633,3.317e-05,0.0,0 STARLINK-3538,1 51996U 22025AS  23133.03844582  .00003317  00000-0  22633-3 0  9990,2 51996  53.2169 330.3812 0001069  76.3619 283.7492 15.08854066 66691,6917.837,95.437,540.442,538.963,0.0
51996.0,STARLINK-3538,PAYLOAD,2023-05-13 05:41:32,15.08829561,0.0001654,53.2161,329.489,83.1899,276.9281,-4.5065e-05,-1.005e-05,0.0,0 STARLINK-3538,1 51996U 22025AS  23133.23717969 -.00001005  00000-0 -45065-4 0  9999,2 51996  53.2161 329.4890 0001654  83.1899 276.9281 15.08829561 66720,6917.912,95.438,540.922,538.633,0.0
51996.0,STARLINK-3538,PAYLOAD,2023-05-13 19:59:59,15.08843576,0.0001068,53.2162,326.8142,76.5792,283.5319,0.0001302,1.785e-05,0.0,0 STARLINK-3538,1 51996U 22025AS  23133.83333224  .00001785  00000-0  13020-3 0  9991,2 51996  53.2162 326.8142 0001068  76.5792 283.5319 15.08843576 66817,6917.869,95.437,540.473,538.996,0.0
51996.0,STARLINK-3538,PAYLOAD,2023-05-14 05:32:18,15.08841434,0.000103,53.2158,325.0304,76.8541,283.2566,9.8121e-05,1.274e-05,0.0,0 STARLINK-3538,1 51996U 22025AS  23134.23077336  .00001274  00000-0  98121-4 0  9994,2 51996  53.2158 325.0304 0001030  76.8541 283.2566 15.08841434 65357,6917.876,95.437,540.454,539.028,0.0
51996.0,STARLINK-3538,PAYLOAD,2023-05-14 19:50:47,15.0884221,0.0001068,53.2157,322.3541,81.3774,278.7339,6.5945e-05,7.62e-06,0.0,0 STARLINK-3538,1 51996U 22025AS  23134.82693347  .00000762  00000-0  65945-4 0  9994,2 51996  53.2157 322.3541 0001068  81.3774 278.7339 15.08842210 65449,6917.874,95.437,540.477,539.0,0.0
51996.0,STARLINK-3538,PAYLOAD,2023-05-14 23:01:33,15.08846414,0.0001105,53.2157,321.7591,84.7191,275.3927,0.00014592,2.036e-05,0.0,0 STARLINK-3538,1 51996U 22025AS  23134.95941167  .00002036  00000-0  14592-3 0  9991,2 51996  53.2157 321.7591 0001105  84.7191 275.3927 15.08846414 66985,6917.861,95.437,540.49,538.961,0.0
51996.0,STARLINK-3538,PAYLOAD,2023-05-15 05:23:05,15.08841503,0.0001209,53.216,320.5683,81.512,278.6009,6.669e-05,7.74e-06,0.0,0 STARLINK-3538,1 51996U 22025AS  23135.22437374  .00000774  00000-0  66690-4 0  9996,2 51996  53.2160 320.5683 0001209  81.5120 278.6009 15.08841503 65508,6917.876,95.437,540.577,538.904,0.0
51996.0,STARLINK-3538,PAYLOAD,2023-05-15 16:30:48,15.08834967,0.000119,53.2161,318.4866,83.1019,277.0108,9.2524e-06,-1.41e-06,0.0,0 STARLINK-3538,1 51996U 22025AS  23135.68805749 -.00000141  00000-0  92524-5 0  9996,2 51996  53.2161 318.4866 0001190  83.1019 277.0108 15.08834967 67097,6917.896,95.438,540.584,538.938,0.0
51996.0,STARLINK-3538,PAYLOAD,2023-05-16 11:35:25,15.08838729,0.0001215,53.2163,314.9179,80.3282,279.7847,0.00010828,1.436e-05,0.0,0 STARLINK-3538,1 51996U 22025AS  23136.48293884  .00001436  00000-0  10828-3 0  9998,2 51996  53.2163 314.9179 0001215  80.3282 279.7847 15.08838729 65699,6917.884,95.438,540.59,538.909,0.0
51996.0,STARLINK-3538,PAYLOAD,2023-05-16 17:56:58,15.08845979,0.0001325,53.2165,313.7294,83.5331,276.5812,9.9428e-05,1.295e-05,0.0,0 STARLINK-3538,1 51996U 22025AS  23136.74789449  .00001295  00000-0  99428-4 0  9991,2 51996  53.2165 313.7294 0001325  83.5331 276.5812 15.08845979 67254,6917.862,95.437,540.644,538.81,0.0
51996.0,STARLINK-3538,PAYLOAD,2023-05-17 11:26:12,15.08840262,0.0001208,53.218,310.4609,84.2032,275.9098,0.0001329,1.828e-05,0.0,0 STARLINK-3538,1 51996U 22025AS  23137.47653866  .00001828  00000-0  13290-3 0  9999,2 51996  53.2180 310.4609 0001208  84.2032 275.9098 15.08840262 67362,6917.88,95.438,540.58,538.909,0.0
51996.0,STARLINK-3538,PAYLOAD,2023-05-17 17:47:45,15.08841855,9.77e-05,53.2161,309.2692,90.0062,270.1042,0.00012427,1.691e-05,0.0,0 STARLINK-3538,1 51996U 22025AS  23137.74149739  .00001691  00000-0  12427-3 0  9997,2 51996  53.2161 309.2692 0000977  90.0062 270.1042 15.08841855 65889,6917.875,95.437,540.416,539.064,0.0
51996.0,STARLINK-3538,PAYLOAD,2023-05-18 04:55:27,15.08842356,9.55e-05,53.2159,307.1875,87.7374,272.3728,0.00012144,1.646e-05,0.0,0 STARLINK-3538,1 51996U 22025AS  23138.20517697  .00001646  00000-0  12144-3 0  9997,2 51996  53.2159 307.1875 0000955  87.7374 272.3728 15.08842356 65951,6917.873,95.437,540.399,539.078,0.0
51996.0,STARLINK-3538,PAYLOAD,2023-05-18 17:38:32,15.08842873,0.0001164,53.2177,304.8086,99.9983,260.1141,8.9232e-05,1.133e-05,0.0,0 STARLINK-3538,1 51996U 22025AS  23138.73509640  .00001133  00000-0  89232-4 0  9998,2 51996  53.2177 304.8086 0001164  99.9983 260.1141 15.08842873 67559,6917.872,95.437,540.542,538.931,0.0
51996.0,STARLINK-3538,PAYLOAD,2023-05-18 20:49:18,15.08843481,0.0001164,53.2177,304.2139,99.5391,260.5733,8.9358e-05,1.135e-05,0.0,0 STARLINK-3538,1 51996U 22025AS  23138.86757580  .00001135  00000-0  89358-4 0  9991,2 51996  53.2177 304.2139 0001164  99.5391 260.5733 15.08843481 66052,6917.87,95.437,540.54,538.93,0.0
51996.0,STARLINK-3538,PAYLOAD,2023-05-19 17:29:19,15.08842879,9.56e-05,53.2163,300.3493,87.7475,272.3626,0.00010019,1.307e-05,0.0,0 STARLINK-3538,1 51996U 22025AS  23139.72869545  .00001307  00000-0  10019-3 0  9990,2 51996  53.2163 300.3493 0000956  87.7475 272.3626 15.08842879 66183,6917.872,95.437,540.398,539.075,0.0
51996.0,STARLINK-3538,PAYLOAD,2023-05-20 10:58:34,15.08840675,0.0001046,53.2162,297.0783,90.9279,269.1833,7.9799e-05,9.82e-06,0.0,0 STARLINK-3538,1 51996U 22025AS  23140.45733833  .00000982  00000-0  79799-4 0  9991,2 51996  53.2162 297.0783 0001046  90.9279 269.1833 15.08840675 67812,6917.878,95.438,540.467,539.02,0.0
51996.0,STARLINK-3538,PAYLOAD,2023-05-20 17:20:06,15.08855123,8.94e-05,53.217,295.8882,95.0093,265.1002,0.00029837,4.466e-05,0.0,0 STARLINK-3538,1 51996U 22025AS  23140.72229316  .00004466  00000-0  29837-3 0  9995,2 51996  53.2170 295.8882 0000894  95.0093 265.1002 15.08855123 67859,6917.834,95.437,540.318,539.081,0.0
51996.0,STARLINK-3538,PAYLOAD,2023-05-21 10:49:21,15.0882376,0.0001019,53.2162,292.6171,77.4317,282.6789,-0.00022582,-3.878e-05,0.0,0 STARLINK-3538,1 51996U 22025AS  23141.45094521 -.00003878  00000-0 -22582-3 0  9992,2 51996  53.2162 292.6171 0001019  77.4317 282.6789 15.08823760 67969,6917.93,95.439,540.5,539.09,0.0
51996.0,STARLINK-3538,PAYLOAD,2023-05-21 17:10:54,15.08829091,0.0001061,53.2162,291.428,82.0497,278.0615,-0.00012852,-2.332e-05,0.0,0 STARLINK-3538,1 51996U 22025AS  23141.71590407 -.00002332  00000-0 -12852-3 0  9998,2 51996  53.2162 291.4280 0001061  82.0497 278.0615 15.08829091 66481,6917.914,95.438,540.513,539.045,0.0
51996.0,STARLINK-3538,PAYLOAD,2023-05-22 02:43:13,15.08830801,0.000106,53.2183,289.6447,79.8926,280.2186,-2.4976e-05,-6.85e-06,0.0,0 STARLINK-3538,1 51996U 22025AS  23142.11334630 -.00000685  00000-0 -24976-4 0  9997,2 51996  53.2183 289.6447 0001060  79.8926 280.2186 15.08830801 68063,6917.909,95.438,540.507,539.04,0.0
51996.0,STARLINK-3538,PAYLOAD,2023-05-22 18:37:04,15.08848531,0.0001039,53.2171,286.6707,80.2959,279.815,0.00034331,5.181e-05,0.0,0 STARLINK-3538,1 51996U 22025AS  23142.77574117  .00005181  00000-0  34331-3 0  9994,2 51996  53.2171 286.6707 0001039  80.2959 279.8150 15.08848531 68169,6917.854,95.437,540.438,539.001,0.0
51996.0,STARLINK-3538,PAYLOAD,2023-05-23 08:55:32,15.08839927,0.0001176,53.2173,283.9967,91.2247,268.8879,0.00025997,3.852e-05,0.0,0 STARLINK-3538,1 51996U 22025AS  23143.37190708  .00003852  00000-0  25997-3 0  9992,2 51996  53.2173 283.9967 0001176  91.2247 268.8879 15.08839927 68258,6917.881,95.438,540.559,538.932,0.0
51996.0,STARLINK-3538,PAYLOAD,2023-05-23 16:52:28,15.08845117,9.55e-05,53.2162,282.5062,79.5857,280.5243,0.00033549,5.056e-05,0.0,0 STARLINK-3538,1 51996U 22025AS  23143.70310675  .00005056  00000-0  33549-3 0  9996,2 51996  53.2162 282.5062 0000955  79.5857 280.5243 15.08845117 66787,6917.865,95.437,540.39,539.069,0.0
51996.0,STARLINK-3538,PAYLOAD,2023-05-24 15:07:52,15.08841328,9.8e-05,53.2162,278.3436,83.013,277.0973,0.00011882,1.604e-05,0.0,0 STARLINK-3538,1 51996U 22025AS  23144.63046786  .00001604  00000-0  11882-3 0  9999,2 51996  53.2162 278.3436 0000980  83.0130 277.0973 15.08841328 68443,6917.876,95.437,540.419,539.063,0.0
51996.0,STARLINK-3538,PAYLOAD,2023-05-25 18:09:25,15.08852905,9.76e-05,53.216,273.2877,84.6774,275.433,0.00027274,4.057e-05,0.0,0 STARLINK-3538,1 51996U 22025AS  23145.75654308  .00004057  00000-0  27274-3 0  9995,2 51996  53.2160 273.2877 0000976  84.6774 275.4330 15.08852905 68611,6917.841,95.437,540.381,539.031,0.0
